STARLINK-32467          
1 61713U 24196G   26076.40852418  .00000975  00000+0  45061-4 0  9993
2 61713  53.1612  65.8234 0001258  96.3400 263.7744 15.30187458 78330
STARLINK-32440          
1 61714U 24196H   26076.24940126  .00002932  00000+0  11112-3 0  9994
2 61714  53.1612  66.2507 0001286  74.7985 285.3158 15.30191994 78315
STARLINK-32459          
1 61715U 24196J   26076.17142315  .00002472  00000+0  95602-4 0  9997
2 61715  53.1617  66.4759 0001364  90.6018 269.5139 15.30188600 78305
STARLINK-32465          
1 61716U 24196K   26076.27261887  .00004099  00000+0  15046-3 0  9995
2 61716  53.1606  66.3954 0001363  97.1488 262.9668 15.30195148 78312
STARLINK-32457          
1 61717U 24196L   26076.23357200  .00002359  00000+0  91794-4 0  9999
2 61717  53.1622  66.1520 0001383  93.0066 267.1093 15.30181641 78319
STARLINK-32591          
1 61718U 24196M   26076.19517084 -.00004958  00000+0 -15565-3 0  9993
2 61718  53.1620  53.8026 0002040  96.9417 263.1816 15.30143700 78486
STARLINK-32344          
1 61719U 24196N   26076.39375173 -.00000356  00000+0  99511-7 0  9991
2 61719  53.1604  65.7272 0001103  72.0607 288.0514 15.30185830 78334
STARLINK-32322          
1 61720U 24196P   26076.40641658  .00000611  00000+0  32775-4 0  9998
2 61720  53.1619  65.8087 0001399  88.4003 271.7158 15.30186805 78331
STARLINK-32469          
1 61721U 24196Q   26076.22724003  .00003583  00000+0  13310-3 0  9999
2 61721  53.1620  66.1100 0000876 109.7268 250.3828 15.30183794 78312
STARLINK-32438          
1 61722U 24196R   26076.40008249  .00001897  00000+0  76188-4 0  9996
2 61722  53.1618  65.7682 0001345  87.1240 272.9915 15.30188453 78337
STARLINK-32540          
1 61723U 24196S   26076.59597543  .00000463  00000+0  27770-4 0  9998
2 61723  53.1626  28.8032 0001419  81.1997 278.9164 15.30189184 78863
STARLINK-32528          
1 61724U 24196T   26076.21364431 -.00000768  00000+0 -13817-4 0  9993
2 61724  53.1612  66.7357 0001237  84.8810 275.2332 15.30179264 77103
STARLINK-32573          
1 61725U 24196U   26076.25995222 -.00000728  00000+0 -12440-4 0  9993
2 61725  53.1585  66.3150 0001250  83.7013 276.4130 15.30200962 78311
STARLINK-32478          
1 61726U 24196V   26076.25257056  .00000018  00000+0  12753-4 0  9997
2 61726  53.1604  66.2669 0001182  65.8013 294.3111 15.30176756 78314
STARLINK-32511          
1 61727U 24196W   26076.24623380  .00001434  00000+0  60551-4 0  9996
2 61727  53.1612  66.2295 0001255  80.3070 279.8073 15.30191532 78319
STARLINK-32475          
1 61728U 24196X   26076.23990188  .00001502  00000+0  62868-4 0  9998
2 61728  53.1607  66.1898 0001432  57.3803 302.7336 15.30188672 78316
