[{"OBJECT_NAME":"STARLINK-32467","OBJECT_ID":"2024-196G","EPOCH":"2026-03-17T09:48:16.489152","MEAN_MOTION":15.30187458,"ECCENTRICITY":0.0001258,"INCLINATION":53.1612,"RA_OF_ASC_NODE":65.8234,"ARG_OF_PERICENTER":96.34,"MEAN_ANOMALY":263.7744,"EPHEMERIS_TYPE":0,"CLASSIFICATION_TYPE":"U","NORAD_CAT_ID":61713,"ELEMENT_SET_NO":999,"REV_AT_EPOCH":7833,"BSTAR":4.5060684e-5,"MEAN_MOTION_DOT":9.75e-6,"MEAN_MOTION_DDOT":0},{"OBJECT_NAME":"STARLINK-32440","OBJECT_ID":"2024-196H","EPOCH":"2026-03-17T05:59:08.268864","MEAN_MOTION":15.30191994,"ECCENTRICITY":0.00012862,"INCLINATION":53.1612,"RA_OF_ASC_NODE":66.2507,"ARG_OF_PERICENTER":74.7985,"MEAN_ANOMALY":285.3158,"EPHEMERIS_TYPE":0,"CLASSIFICATION_TYPE":"U","NORAD_CAT_ID":61714,"ELEMENT_SET_NO":999,"REV_AT_EPOCH":7831,"BSTAR":0.00011111589,"MEAN_MOTION_DOT":2.932e-5,"MEAN_MOTION_DDOT":0},{"OBJECT_NAME":"STARLINK-32459","OBJECT_ID":"2024-196J","EPOCH":"2026-03-17T04:06:50.960160","MEAN_MOTION":15.301886,"ECCENTRICITY":0.00013641,"INCLINATION":53.1617,"RA_OF_ASC_NODE":66.4759,"ARG_OF_PERICENTER":90.6018,"MEAN_ANOMALY":269.5139,"EPHEMERIS_TYPE":0,"CLASSIFICATION_TYPE":"U","NORAD_CAT_ID":61715,"ELEMENT_SET_NO":999,"REV_AT_EPOCH":7830,"BSTAR":9.5602169e-5,"MEAN_MOTION_DOT":2.472e-5,"MEAN_MOTION_DDOT":0},{"OBJECT_NAME":"STARLINK-32465","OBJECT_ID":"2024-196K","EPOCH":"2026-03-17T06:32:34.270368","MEAN_MOTION":15.30195148,"ECCENTRICITY":0.00013637,"INCLINATION":53.1606,"RA_OF_ASC_NODE":66.3954,"ARG_OF_PERICENTER":97.1488,"MEAN_ANOMALY":262.9668,"EPHEMERIS_TYPE":0,"CLASSIFICATION_TYPE":"U","NORAD_CAT_ID":61716,"ELEMENT_SET_NO":999,"REV_AT_EPOCH":7831,"BSTAR":0.0001504591,"MEAN_MOTION_DOT":4.099e-5,"MEAN_MOTION_DDOT":0},{"OBJECT_NAME":"STARLINK-32457","OBJECT_ID":"2024-196L","EPOCH":"2026-03-17T05:36:20.620800","MEAN_MOTION":15.30181641,"ECCENTRICITY":0.00013836,"INCLINATION":53.1622,"RA_OF_ASC_NODE":66.152,"ARG_OF_PERICENTER":93.0066,"MEAN_ANOMALY":267.1093,"EPHEMERIS_TYPE":0,"CLASSIFICATION_TYPE":"U","NORAD_CAT_ID":61717,"ELEMENT_SET_NO":999,"REV_AT_EPOCH":7831,"BSTAR":9.1793921e-5,"MEAN_MOTION_DOT":2.359e-5,"MEAN_MOTION_DDOT":0},{"OBJECT_NAME":"STARLINK-32591","OBJECT_ID":"2024-196M","EPOCH":"2026-03-17T04:41:02.760576","MEAN_MOTION":15.301437,"ECCENTRICITY":0.00020408,"INCLINATION":53.162,"RA_OF_ASC_NODE":53.8026,"ARG_OF_PERICENTER":96.9417,"MEAN_ANOMALY":263.1816,"EPHEMERIS_TYPE":0,"CLASSIFICATION_TYPE":"U","NORAD_CAT_ID":61718,"ELEMENT_SET_NO":999,"REV_AT_EPOCH":7848,"BSTAR":-0.00015564654,"MEAN_MOTION_DOT":-4.958e-5,"MEAN_MOTION_DDOT":0},{"OBJECT_NAME":"STARLINK-32344","OBJECT_ID":"2024-196N","EPOCH":"2026-03-17T09:27:00.149472","MEAN_MOTION":15.3018583,"ECCENTRICITY":0.00011036,"INCLINATION":53.1604,"RA_OF_ASC_NODE":65.7272,"ARG_OF_PERICENTER":72.0607,"MEAN_ANOMALY":288.0514,"EPHEMERIS_TYPE":0,"CLASSIFICATION_TYPE":"U","NORAD_CAT_ID":61719,"ELEMENT_SET_NO":999,"REV_AT_EPOCH":7833,"BSTAR":9.9511e-8,"MEAN_MOTION_DOT":-3.56e-6,"MEAN_MOTION_DDOT":0},{"OBJECT_NAME":"STARLINK-32322","OBJECT_ID":"2024-196P","EPOCH":"2026-03-17T09:45:14.392512","MEAN_MOTION":15.30186805,"ECCENTRICITY":0.00013993,"INCLINATION":53.1619,"RA_OF_ASC_NODE":65.8087,"ARG_OF_PERICENTER":88.4003,"MEAN_ANOMALY":271.7158,"EPHEMERIS_TYPE":0,"CLASSIFICATION_TYPE":"U","NORAD_CAT_ID":61720,"ELEMENT_SET_NO":999,"REV_AT_EPOCH":7833,"BSTAR":3.277503e-5,"MEAN_MOTION_DOT":6.11e-6,"MEAN_MOTION_DDOT":0},{"OBJECT_NAME":"STARLINK-32469","OBJECT_ID":"2024-196Q","EPOCH":"2026-03-17T05:27:13.538592","MEAN_MOTION":15.30183794,"ECCENTRICITY":8.769e-5,"INCLINATION":53.162,"RA_OF_ASC_NODE":66.11,"ARG_OF_PERICENTER":109.7268,"MEAN_ANOMALY":250.3828,"EPHEMERIS_TYPE":0,"CLASSIFICATION_TYPE":"U","NORAD_CAT_ID":61721,"ELEMENT_SET_NO":999,"REV_AT_EPOCH":7831,"BSTAR":0.0001330977,"MEAN_MOTION_DOT":3.583e-5,"MEAN_MOTION_DDOT":0},{"OBJECT_NAME":"STARLINK-32438","OBJECT_ID":"2024-196R","EPOCH":"2026-03-17T09:36:07.127136","MEAN_MOTION":15.30188453,"ECCENTRICITY":0.00013451,"INCLINATION":53.1618,"RA_OF_ASC_NODE":65.7682,"ARG_OF_PERICENTER":87.124,"MEAN_ANOMALY":272.9915,"EPHEMERIS_TYPE":0,"CLASSIFICATION_TYPE":"U","NORAD_CAT_ID":61722,"ELEMENT_SET_NO":999,"REV_AT_EPOCH":7833,"BSTAR":7.6187692e-5,"MEAN_MOTION_DOT":1.897e-5,"MEAN_MOTION_DDOT":0},{"OBJECT_NAME":"STARLINK-32540","OBJECT_ID":"2024-196S","EPOCH":"2026-03-17T14:18:12.277152","MEAN_MOTION":15.30189184,"ECCENTRICITY":0.00014193,"INCLINATION":53.1626,"RA_OF_ASC_NODE":28.8032,"ARG_OF_PERICENTER":81.1997,"MEAN_ANOMALY":278.9164,"EPHEMERIS_TYPE":0,"CLASSIFICATION_TYPE":"U","NORAD_CAT_ID":61723,"ELEMENT_SET_NO":999,"REV_AT_EPOCH":7886,"BSTAR":2.7769712e-5,"MEAN_MOTION_DOT":4.63e-6,"MEAN_MOTION_DDOT":0},{"OBJECT_NAME":"STARLINK-32528","OBJECT_ID":"2024-196T","EPOCH":"2026-03-17T05:07:38.868384","MEAN_MOTION":15.30179264,"ECCENTRICITY":0.0001237,"INCLINATION":53.1612,"RA_OF_ASC_NODE":66.7357,"ARG_OF_PERICENTER":84.881,"MEAN_ANOMALY":275.2332,"EPHEMERIS_TYPE":0,"CLASSIFICATION_TYPE":"U","NORAD_CAT_ID":61724,"ELEMENT_SET_NO":999,"REV_AT_EPOCH":7710,"BSTAR":-1.381693e-5,"MEAN_MOTION_DOT":-7.68e-6,"MEAN_MOTION_DDOT":0},{"OBJECT_NAME":"STARLINK-32573","OBJECT_ID":"2024-196U","EPOCH":"2026-03-17T06:14:19.871808","MEAN_MOTION":15.30200962,"ECCENTRICITY":0.00012507,"INCLINATION":53.1585,"RA_OF_ASC_NODE":66.315,"ARG_OF_PERICENTER":83.7013,"MEAN_ANOMALY":276.413,"EPHEMERIS_TYPE":0,"CLASSIFICATION_TYPE":"U","NORAD_CAT_ID":61725,"ELEMENT_SET_NO":999,"REV_AT_EPOCH":7831,"BSTAR":-1.2440268e-5,"MEAN_MOTION_DOT":-7.28e-6,"MEAN_MOTION_DDOT":0},{"OBJECT_NAME":"STARLINK-32478","OBJECT_ID":"2024-196V","EPOCH":"2026-03-17T06:03:42.096384","MEAN_MOTION":15.30176756,"ECCENTRICITY":0.00011824,"INCLINATION":53.1604,"RA_OF_ASC_NODE":66.2669,"ARG_OF_PERICENTER":65.8013,"MEAN_ANOMALY":294.3111,"EPHEMERIS_TYPE":0,"CLASSIFICATION_TYPE":"U","NORAD_CAT_ID":61726,"ELEMENT_SET_NO":999,"REV_AT_EPOCH":7831,"BSTAR":1.2753241e-5,"MEAN_MOTION_DOT":1.8e-7,"MEAN_MOTION_DDOT":0},{"OBJECT_NAME":"STARLINK-32511","OBJECT_ID":"2024-196W","EPOCH":"2026-03-17T05:54:34.600320","MEAN_MOTION":15.30191532,"ECCENTRICITY":0.00012555,"INCLINATION":53.1612,"RA_OF_ASC_NODE":66.2295,"ARG_OF_PERICENTER":80.307,"MEAN_ANOMALY":279.8073,"EPHEMERIS_TYPE":0,"CLASSIFICATION_TYPE":"U","NORAD_CAT_ID":61727,"ELEMENT_SET_NO":999,"REV_AT_EPOCH":7831,"BSTAR":6.0550951e-5,"MEAN_MOTION_DOT":1.434e-5,"MEAN_MOTION_DDOT":0},{"OBJECT_NAME":"STARLINK-32475","OBJECT_ID":"2024-196X","EPOCH":"2026-03-17T05:45:27.522432","MEAN_MOTION":15.30188672,"ECCENTRICITY":0.00014328,"INCLINATION":53.1607,"RA_OF_ASC_NODE":66.1898,"ARG_OF_PERICENTER":57.3803,"MEAN_ANOMALY":302.7336,"EPHEMERIS_TYPE":0,"CLASSIFICATION_TYPE":"U","NORAD_CAT_ID":61728,"ELEMENT_SET_NO":999,"REV_AT_EPOCH":7831,"BSTAR":6.2868333e-5,"MEAN_MOTION_DOT":1.502e-5,"MEAN_MOTION_DDOT":0}]
